H1 CPF 01  gfz 2021 04 20 00  6101 terrasarx 
H2 0702601  6201 31698    2021 04 20 00 59 42 2021 04 25 00 00 42   120 1 1  0 0 0
H9
10 0 59327  25902.000000  0    3777350.122  -1942909.765  -5430414.711
10 0 59327  26022.000000  0    3019070.944  -1802481.367  -5930608.062
10 0 59327  26142.000000  0    2211269.930  -1617080.670  -6327187.770
10 0 59327  26262.000000  0    1368755.902  -1389209.046  -6613310.063
10 0 59327  26382.000000  0     506860.035  -1122357.177  -6784047.010
10 0 59327  26502.000000  0    -358839.409   -820951.955  -6836462.086
10 0 59327  26622.000000  0   -1212792.606   -490283.968  -6769654.679
10 0 59327  26742.000000  0   -2039751.148   -136416.699  -6584774.152
10 0 59327  26862.000000  0   -2825034.217    233921.895  -6285001.106
10 0 59327  26982.000000  0   -3554783.278    613462.944  -5875498.482
10 0 59327  27102.000000  0   -4216204.805    994534.777  -5363332.890
10 0 59327  27222.000000  0   -4797796.467   1369212.701  -4757363.675
10 0 59327  27342.000000  0   -5289553.264   1729479.933  -4068102.214
10 0 59327  27462.000000  0   -5683148.216   2067395.780  -3307538.781
10 0 59327  27582.000000  0   -5972083.712   2375266.342  -2488941.821
10 0 59327  27702.000000  0   -6151810.602   2645815.305  -1626630.892
10 0 59327  27822.000000  0   -6219810.694   2872350.691   -735726.511
10 0 59327  27942.000000  0   -6175640.049   3048923.131    168118.663
10 0 59327  28062.000000  0   -6020930.272   3170470.771   1069002.401
10 0 59327  28182.000000  0   -5759346.738   3232947.500   1951061.419
10 0 59327  28302.000000  0   -5396505.831   3233430.707   2798759.721
10 0 59327  28422.000000  0   -4939853.514   3170206.089   3597170.058
10 0 59327  28542.000000  0   -4398507.932   3042826.619   4332243.603
10 0 59327  28662.000000  0   -3783070.097   2852144.570   4991060.003
10 0 59327  28782.000000  0   -3105409.528   2600317.079   5562054.228
10 0 59327  28902.000000  0   -2378428.187   2290785.374   6035218.059
10 0 59327  29022.000000  0   -1615808.104   1928226.976   6402270.892
10 0 59327  29142.000000  0    -831748.736   1518482.918   6656798.066
10 0 59327  29262.000000  0     -40701.215   1068461.538   6794355.529
10 0 59327  29382.000000  0     742897.391    586020.743   6812542.589
10 0 59327  29502.000000  0    1504886.602     79830.889   6711040.890
10 0 59327  29622.000000  0    2231637.078   -440780.137   6491619.984
10 0 59327  29742.000000  0    2910293.862   -965998.240   6158109.381
10 0 59327  29862.000000  0    3529005.356  -1485706.920   5716336.653
10 0 59327  29982.000000  0    4077134.142  -1989681.886   5174031.165
10 0 59327  30102.000000  0    4545444.113  -2467792.093   4540694.274
10 0 59327  30222.000000  0    4926262.676  -2910204.397   3827439.317
10 0 59327  30342.000000  0    5213614.727  -3307587.971   3046800.058
10 0 59327  30462.000000  0    5403323.294  -3651312.253   2212509.697
10 0 59327  30582.000000  0    5493073.511  -3933634.488   1339256.713
10 0 59327  30702.000000  0    5482440.158  -4147872.968    442421.163
10 0 59327  30822.000000  0    5372876.997  -4288559.732   -462203.505
10 0 59327  30942.000000  0    5167668.122  -4351570.423  -1358697.581
10 0 59327  31062.000000  0    4871841.922  -4334226.166  -2231304.231
10 0 59327  31182.000000  0    4492050.175  -4235365.757  -3064713.784
10 0 59327  31302.000000  0    4036416.324  -4055386.958  -3844336.870
10 0 59327  31422.000000  0    3514356.705  -3796255.516  -4556560.963
10 0 59327  31542.000000  0    2936380.205  -3461483.202  -5188985.195
10 0 59327  31662.000000  0    2313871.302  -3056075.539  -5730629.325
10 0 59327  31782.000000  0    1658863.112  -2586452.156  -6172113.769
10 0 59327  31902.000000  0     983804.457  -2060341.846  -6505812.465
10 0 59327  32022.000000  0     301323.591  -1486651.622  -6725974.723
10 0 59327  32142.000000  0    -376005.068   -875314.620  -6828813.530
10 0 59327  32262.000000  0   -1035887.189   -237119.969  -6812562.546
10 0 59327  32382.000000  0   -1666526.328    416473.426  -6677502.844
10 0 59327  32502.000000  0   -2256830.038   1073537.353  -6425957.937
10 0 59327  32622.000000  0   -2796600.502   1721886.501  -6062258.155
10 0 59327  32742.000000  0   -3276708.462   2349299.062  -5592674.502
10 0 59327  32862.000000  0   -3689248.870   2943744.194  -5025322.329
10 0 59327  32982.000000  0   -4027675.675   3493612.256  -4370032.447
10 0 59327  33102.000000  0   -4286911.078   3987942.753  -3638190.276
10 0 59327  33222.000000  0   -4463426.411   4416645.806  -2842546.861
10 0 59327  33342.000000  0   -4555295.048   4770712.663  -1997002.950
10 0 59327  33462.000000  0   -4562214.218   5042409.226  -1116368.711
10 0 59327  33582.000000  0   -4485495.610   5225449.338   -216102.886
10 0 59327  33702.000000  0   -4328021.393   5315140.822    687965.040
10 0 59327  33822.000000  0   -4094169.141   5308500.881   1579920.111
10 0 59327  33942.000000  0   -3789705.897   5204337.294   2444052.927
10 0 59327  34062.000000  0   -3421652.956   5003291.713   3265145.556
10 0 59327  34182.000000  0   -2998126.157   4707846.176   4028745.800
10 0 59327  34302.000000  0   -2528157.344   4322293.302   4721425.722
10 0 59327  34422.000000  0   -2021500.016   3852669.804   5331019.639
10 0 59327  34542.000000  0   -1488424.655   3306655.345   5846836.702
10 0 59327  34662.000000  0    -939508.075   2693439.812   6259844.183
10 0 59327  34782.000000  0    -385422.514   2023562.017   6562818.949
10 0 59327  34902.000000  0     163271.020   1308725.218   6750467.418
10 0 59327  35022.000000  0     696323.758    561590.011   6819513.039
10 0 59327  35142.000000  0    1203989.658   -204449.922   6768748.997
10 0 59327  35262.000000  0    1677202.517   -975506.872   6599058.912
10 0 59327  35382.000000  0    2107737.623  -1737450.397   6313402.654
10 0 59327  35502.000000  0    2488355.297  -2476165.608   5916768.896
10 0 59327  35622.000000  0    2812924.801  -3177815.965   5416093.494
10 0 59327  35742.000000  0    3076525.224  -3829104.954   4820143.733
10 0 59327  35862.000000  0    3275522.236  -4417532.103   4139370.811
10 0 59327  35982.000000  0    3407619.692  -4931639.465   3385730.578
10 0 59327  36102.000000  0    3471883.398  -5361241.275   2572474.879
10 0 59327  36222.000000  0    3468737.164  -5697632.729   1713917.234
10 0 59327  36342.000000  0    3399930.150  -5933771.967    825176.668
10 0 59327  36462.000000  0    3268477.018  -6064429.369    -78094.636
10 0 59327  36582.000000  0    3078573.139  -6086303.880   -979994.315
10 0 59327  36702.000000  0    2835483.882  -5998099.322  -1864660.480
10 0 59327  36822.000000  0    2545412.651  -5800559.465  -2716557.842
10 0 59327  36942.000000  0    2215352.110  -5496463.110  -3520757.184
10 0 59327  37062.000000  0    1852920.343  -5090577.536  -4263201.010
10 0 59327  37182.000000  0    1466187.886  -4589571.908  -4930947.245
10 0 59327  37302.000000  0    1063501.526  -4001896.601  -5512388.934
10 0 59327  37422.000000  0     653307.559  -3337630.901  -5997447.917
10 0 59327  37542.000000  0     243977.848  -2608302.295  -6377738.873
10 0 59327  37662.000000  0    -156357.347  -1826681.922  -6646702.806
10 0 59327  37782.000000  0    -539966.496  -1006559.874  -6799709.566
10 0 59327  37902.000000  0    -899661.301   -162503.901  -6834129.411
10 0 59327  38022.000000  0   -1228927.512    690394.725  -6749372.342
10 0 59327  38142.000000  0   -1522040.146   1536783.927  -6546896.585
10 0 59327  38262.000000  0   -1774160.630   2361320.286  -6230185.917
10 0 59327  38382.000000  0   -1981415.843   3148940.934  -5804697.493
10 0 59327  38502.000000  0   -2140957.888   3885136.208  -5277777.584
10 0 59327  38622.000000  0   -2251003.049   4556217.117  -4658546.363
10 0 59327  38742.000000  0   -2310849.941   5149574.365  -3957750.828
10 0 59327  38862.000000  0   -2320875.017   5653921.624  -3187586.664
10 0 59327  38982.000000  0   -2282505.212   6059518.271  -2361493.555
10 0 59327  39102.000000  0   -2198168.780   6358368.707  -1493925.051
10 0 59327  39222.000000  0   -2071225.036   6544389.839   -600094.909
10 0 59327  39342.000000  0   -1905874.169   6613543.532    304291.602
10 0 59327  39462.000000  0   -1707049.157   6563932.968   1203320.664
10 0 59327  39582.000000  0   -1480291.126   6395852.166   2081161.972
10 0 59327  39702.000000  0   -1231611.766   6111789.104   2922356.517
10 0 59327  39822.000000  0    -967347.903   5716386.008   3712095.292
10 0 59327  39942.000000  0    -694011.833   5216358.500   4436484.984
10 0 59327  40062.000000  0    -418140.229   4620373.014   5082797.416
10 0 59327  40182.000000  0    -146143.877   3938884.238   5639691.580
10 0 59327  40302.000000  0     115834.634   3183944.340   6097408.679
10 0 59327  40422.000000  0     362054.012   2368981.202   6447939.042
10 0 59327  40542.000000  0     587295.710   1508554.101   6685155.756
10 0 59327  40662.000000  0     786971.315    618089.853   6804916.066
10 0 59327  40782.000000  0     957213.716   -286394.447   6805128.197
10 0 59327  40902.000000  0    1094950.944  -1188578.206   6685786.616
10 0 59327  41022.000000  0    1197961.511  -2072131.604   6448972.725
10 0 59327  41142.000000  0    1264910.357  -2921010.983   6098821.446
10 0 59327  41262.000000  0    1295364.611  -3719752.214   5641453.261
10 0 59327  41382.000000  0    1289788.770  -4453754.779   5084871.377
10 0 59327  41502.000000  0    1249520.998  -5109552.067   4438827.975
10 0 59327  41622.000000  0    1176729.723  -5675066.409   3714660.022
10 0 59327  41742.000000  0    1074351.385  -6139841.996   2925092.830
10 0 59327  41862.000000  0     946010.427  -6495247.363   2084016.049
10 0 59327  41982.000000  0     795922.384  -6734644.979   1206237.489
10 0 59327  42102.000000  0     628783.821  -6853523.572    307217.744
10 0 59327  42222.000000  0     449650.655  -6849589.748   -597210.921
10 0 59327  42342.000000  0     263807.615  -6722811.615  -1491134.378
99
